{"type": "FeatureCollection", "features": [ {"type": "Feature", "properties": {"norad_id": 35834, "name": "COSMOS 2251 DEB", "group": "cosmos-2251-debris", "lat": -41.31534890158587, "lon": 125.44328701059423, "alt_km": 909.8961826581008, "timestamp": "2025-12-20T11:30:28.772761+00:00", "meta": {"OBJECT_NAME": "COSMOS 2251 DEB", "OBJECT_ID": "1993-036ATG", "EPOCH": "2025-12-18T21:21:21.733632", "MEAN_MOTION": 14.12989535, "ECCENTRICITY": 0.01093187, "INCLINATION": 73.9334, "RA_OF_ASC_NODE": 293.5971, "ARG_OF_PERICENTER": 92.3571, "MEAN_ANOMALY": 326.954, "EPHEMERIS_TYPE": 0, "CLASSIFICATION_TYPE": "U", "NORAD_CAT_ID": 35834, "ELEMENT_SET_NO": 999, "REV_AT_EPOCH": 66350, "BSTAR": 0.00038881457, "MEAN_MOTION_DOT": 7.43e-06, "MEAN_MOTION_DDOT": 0}, "tle": {"line1": "1 35834U 93036ATG 25352.88983488  .00000743  00000+0  38881-3 0  9991", "line2": "2 35834  73.9334 293.5971 0109318  92.3571 326.9540 14.12989535663505"}}, "geometry": {"type": "Point", "coordinates": [125.44328701059423, -41.31534890158587]}}, {"type": "Feature", "properties": {"norad_id": 35835, "name": "COSMOS 2251 DEB", "group": "cosmos-2251-debris", "lat": 38.77783067428663, "lon": -91.30500986932998, "alt_km": 737.8456084482077, "timestamp": "2025-12-20T11:30:28.772771+00:00", "meta": {"OBJECT_NAME": "COSMOS 2251 DEB", "OBJECT_ID": "1993-036ATH", "EPOCH": "2025-12-19T11:01:01.996032", "MEAN_MOTION": 13.82906831, "ECCENTRICITY": 0.0290943, "INCLINATION": 74.0637, "RA_OF_ASC_NODE": 257.14, "ARG_OF_PERICENTER": 37.2006, "MEAN_ANOMALY": 324.8889, "EPHEMERIS_TYPE": 0, "CLASSIFICATION_TYPE": "U", "NORAD_CAT_ID": 35835, "ELEMENT_SET_NO": 999, "REV_AT_EPOCH": 61792, "BSTAR": 0.0011701, "MEAN_MOTION_DOT": 1.745e-05, "MEAN_MOTION_DDOT": 0}, "tle": {"line1": "1 35835U 93036ATH 25353.45905088  .00001745  00000+0  11701-2 0  9990", "line2": "2 35835  74.0637 257.1400 0290943  37.2006 324.8889 13.82906831617925"}}, "geometry": {"type": "Point", "coordinates": [-91.30500986932998, 38.77783067428663]}}, {"type": "Feature", "properties": {"norad_id": 35836, "name": "COSMOS 2251 DEB", "group": "cosmos-2251-debris", "lat": -12.125550663564104, "lon": -18.57154964692674, "alt_km": 646.1689986199981, "timestamp": "2025-12-20T11:30:28.772781+00:00", "meta": {"OBJECT_NAME": "COSMOS 2251 DEB", "OBJECT_ID": "1993-036ATJ", "EPOCH": "2025-12-19T05:15:24.984288", "MEAN_MOTION": 14.71107486, "ECCENTRICITY": 0.0023755, "INCLINATION": 74.0311, "RA_OF_ASC_NODE": 160.3491, "ARG_OF_PERICENTER": 218.3583, "MEAN_ANOMALY": 141.59, "EPHEMERIS_TYPE": 0, "CLASSIFICATION_TYPE": "U", "NORAD_CAT_ID": 35836, "ELEMENT_SET_NO": 999, "REV_AT_EPOCH": 63615, "BSTAR": 0.0014461, "MEAN_MOTION_DOT": 8.913e-05, "MEAN_MOTION_DDOT": 0}, "tle": {"line1": "1 35836U 93036ATJ 25353.21903917  .00008913  00000+0  14461-2 0  9994", "line2": "2 35836  74.0311 160.3491 0023755 218.3583 141.5900 14.71107486636159"}}, "geometry": {"type": "Point", "coordinates": [-18.57154964692674, -12.125550663564104]}}, {"type": "Feature", "properties": {"norad_id": 35837, "name": "COSMOS 2251 DEB", "group": "cosmos-2251-debris", "lat": -1.003077915111179, "lon": -165.54215978482355, "alt_km": 1147.859196735193, "timestamp": "2025-12-20T11:30:28.772791+00:00", "meta": {"OBJECT_NAME": "COSMOS 2251 DEB", "OBJECT_ID": "1993-036ATK", "EPOCH": "2025-12-20T04:59:29.154048", "MEAN_MOTION": 13.63523619, "ECCENTRICITY": 0.0422025, "INCLINATION": 73.7219, "RA_OF_ASC_NODE": 195.2026, "ARG_OF_PERICENTER": 114.812, "MEAN_ANOMALY": 356.3531, "EPHEMERIS_TYPE": 0, "CLASSIFICATION_TYPE": "U", "NORAD_CAT_ID": 35837, "ELEMENT_SET_NO": 999, "REV_AT_EPOCH": 58078, "BSTAR": 0.0020384, "MEAN_MOTION_DOT": 2.925e-05, "MEAN_MOTION_DDOT": 0}, "tle": {"line1": "1 35837U 93036ATK 25354.20797632  .00002925  00000+0  20384-2 0  9998", "line2": "2 35837  73.7219 195.2026 0422025 114.8120 356.3531 13.63523619580787"}}, "geometry": {"type": "Point", "coordinates": [-165.54215978482355, -1.003077915111179]}}, {"type": "Feature", "properties": {"norad_id": 35839, "name": "COSMOS 2251 DEB", "group": "cosmos-2251-debris", "lat": -42.70683370179538, "lon": -68.56684626409675, "alt_km": 404.23752996701114, "timestamp": "2025-12-20T11:30:28.772801+00:00", "meta": {"OBJECT_NAME": "COSMOS 2251 DEB", "OBJECT_ID": "1993-036ATM", "EPOCH": "2025-12-18T21:09:02.023488", "MEAN_MOTION": 15.5659062, "ECCENTRICITY": 0.00051351, "INCLINATION": 74.2044, "RA_OF_ASC_NODE": 310.0858, "ARG_OF_PERICENTER": 137.0723, "MEAN_ANOMALY": 223.0896, "EPHEMERIS_TYPE": 0, "CLASSIFICATION_TYPE": "U", "NORAD_CAT_ID": 35839, "ELEMENT_SET_NO": 999, "REV_AT_EPOCH": 88663, "BSTAR": 0.0047388387, "MEAN_MOTION_DOT": 0.00352469, "MEAN_MOTION_DDOT": 0}, "tle": {"line1": "1 35839U 93036ATM 25352.88127342  .00352469  00000+0  47388-2 0  9991", "line2": "2 35839  74.2044 310.0858 0005135 137.0723 223.0896 15.56590620886633"}}, "geometry": {"type": "Point", "coordinates": [-68.56684626409675, -42.70683370179538]}}, {"type": "Feature", "properties": {"norad_id": 35840, "name": "COSMOS 2251 DEB", "group": "cosmos-2251-debris", "lat": 70.43012992605179, "lon": -161.98635851562196, "alt_km": 689.0455577109733, "timestamp": "2025-12-20T11:30:28.772811+00:00", "meta": {"OBJECT_NAME": "COSMOS 2251 DEB", "OBJECT_ID": "1993-036ATN", "EPOCH": "2025-12-12T04:26:56.474304", "MEAN_MOTION": 14.37821687, "ECCENTRICITY": 0.01162768, "INCLINATION": 73.9307, "RA_OF_ASC_NODE": 159.2062, "ARG_OF_PERICENTER": 61.7798, "MEAN_ANOMALY": 299.5037, "EPHEMERIS_TYPE": 0, "CLASSIFICATION_TYPE": "U", "NORAD_CAT_ID": 35840, "ELEMENT_SET_NO": 999, "REV_AT_EPOCH": 85283, "BSTAR": 0.0026691111, "MEAN_MOTION_DOT": 8.683e-05, "MEAN_MOTION_DDOT": 0}, "tle": {"line1": "1 35840U 93036ATN 25346.18537586  .00008683  00000+0  26691-2 0  9994", "line2": "2 35840  73.9307 159.2062 0116276  61.7798 299.5037 14.37821687852835"}}, "geometry": {"type": "Point", "coordinates": [-161.98635851562196, 70.43012992605179]}}, {"type": "Feature", "properties": {"norad_id": 35883, "name": "COSMOS 2251 DEB", "group": "cosmos-2251-debris", "lat": 65.26520456332933, "lon": 93.91738224366287, "alt_km": 738.793696316694, "timestamp": "2025-12-20T11:30:28.772821+00:00", "meta": {"OBJECT_NAME": "COSMOS 2251 DEB", "OBJECT_ID": "1993-036ATW", "EPOCH": "2025-12-16T04:41:35.789568", "MEAN_MOTION": 14.50615193, "ECCENTRICITY": 0.00835028, "INCLINATION": 74.0253, "RA_OF_ASC_NODE": 63.5249, "ARG_OF_PERICENTER": 192.1269, "MEAN_ANOMALY": 197.0315, "EPHEMERIS_TYPE": 0, "CLASSIFICATION_TYPE": "U", "NORAD_CAT_ID": 35883, "ELEMENT_SET_NO": 999, "REV_AT_EPOCH": 62436, "BSTAR": 0.00022216854, "MEAN_MOTION_DOT": 8.82e-06, "MEAN_MOTION_DDOT": 0}, "tle": {"line1": "1 35883U 93036ATW 25350.19555312  .00000882  00000+0  22217-3 0  9998", "line2": "2 35883  74.0253  63.5249 0083502 192.1269 197.0315 14.50615193624369"}}, "geometry": {"type": "Point", "coordinates": [93.91738224366287, 65.26520456332933]}}, {"type": "Feature", "properties": {"norad_id": 35884, "name": "COSMOS 2251 DEB", "group": "cosmos-2251-debris", "lat": 0.25178591407811085, "lon": 141.92417014179986, "alt_km": 784.6507815970954, "timestamp": "2025-12-20T11:30:28.772831+00:00", "meta": {"OBJECT_NAME": "COSMOS 2251 DEB", "OBJECT_ID": "1993-036ATX", "EPOCH": "2025-12-16T07:19:09.379488", "MEAN_MOTION": 14.25680751, "ECCENTRICITY": 0.01084022, "INCLINATION": 73.9902, "RA_OF_ASC_NODE": 329.5521, "ARG_OF_PERICENTER": 115.5254, "MEAN_ANOMALY": 245.7151, "EPHEMERIS_TYPE": 0, "CLASSIFICATION_TYPE": "U", "NORAD_CAT_ID": 35884, "ELEMENT_SET_NO": 999, "REV_AT_EPOCH": 22408, "BSTAR": 0.00087030299, "MEAN_MOTION_DOT": 2.171e-05, "MEAN_MOTION_DDOT": 0}, "tle": {"line1": "1 35884U 93036ATX 25350.30496967  .00002171  00000+0  87030-3 0  9999", "line2": "2 35884  73.9902 329.5521 0108402 115.5254 245.7151 14.25680751224085"}}, "geometry": {"type": "Point", "coordinates": [141.92417014179986, 0.25178591407811085]}}, {"type": "Feature", "properties": {"norad_id": 35885, "name": "COSMOS 2251 DEB", "group": "cosmos-2251-debris", "lat": -57.94962875264345, "lon": -106.67596383416414, "alt_km": 765.2271938646745, "timestamp": "2025-12-20T11:30:28.772841+00:00", "meta": {"OBJECT_NAME": "COSMOS 2251 DEB", "OBJECT_ID": "1993-036ATY", "EPOCH": "2025-12-20T03:26:35.075328", "MEAN_MOTION": 14.37533369, "ECCENTRICITY": 0.0023612, "INCLINATION": 74.0287, "RA_OF_ASC_NODE": 281.1634, "ARG_OF_PERICENTER": 0.0497, "MEAN_ANOMALY": 0.0654, "EPHEMERIS_TYPE": 0, "CLASSIFICATION_TYPE": "U", "NORAD_CAT_ID": 35885, "ELEMENT_SET_NO": 999, "REV_AT_EPOCH": 65122, "BSTAR": 0.00021713, "MEAN_MOTION_DOT": 6.26e-06, "MEAN_MOTION_DDOT": 0}, "tle": {"line1": "1 35885U 93036ATY 25354.14346152  .00000626  00000+0  21713-3 0  9995", "line2": "2 35885  74.0287 281.1634 0023612   0.0497   0.0654 14.37533369651223"}}, "geometry": {"type": "Point", "coordinates": [-106.67596383416414, -57.94962875264345]}}, {"type": "Feature", "properties": {"norad_id": 35888, "name": "COSMOS 2251 DEB", "group": "cosmos-2251-debris", "lat": 63.42426529763534, "lon": 127.022100585216, "alt_km": 658.0309229097238, "timestamp": "2025-12-20T11:30:28.772851+00:00", "meta": {"OBJECT_NAME": "COSMOS 2251 DEB", "OBJECT_ID": "1993-036AUB", "EPOCH": "2025-12-19T16:53:26.890080", "MEAN_MOTION": 14.58341015, "ECCENTRICITY": 0.00479832, "INCLINATION": 74.0337, "RA_OF_ASC_NODE": 343.4108, "ARG_OF_PERICENTER": 113.3266, "MEAN_ANOMALY": 247.2958, "EPHEMERIS_TYPE": 0, "CLASSIFICATION_TYPE": "U", "NORAD_CAT_ID": 35888, "ELEMENT_SET_NO": 999, "REV_AT_EPOCH": 86375, "BSTAR": 0.00026393359, "MEAN_MOTION_DOT": 1.211e-05, "MEAN_MOTION_DDOT": 0}, "tle": {"line1": "1 35888U 93036AUB 25353.70378345  .00001211  00000+0  26393-3 0  9998", "line2": "2 35888  74.0337 343.4108 0047983 113.3266 247.2958 14.58341015863752"}}, "geometry": {"type": "Point", "coordinates": [127.022100585216, 63.42426529763534]}}]}